NORAD_CAT_ID,OBJECT_NAME,OBJECT_TYPE,EPOCH,MEAN_MOTION,ECCENTRICITY,INCLINATION,RA_OF_ASC_NODE,ARG_OF_PERICENTER,MEAN_ANOMALY,BSTAR,MEAN_MOTION_DOT,MEAN_MOTION_DDOT,TLE_LINE0,TLE_LINE1,TLE_LINE2,SEMIMAJOR_AXIS,PERIOD,APOGEE,PERIGEE,DECAYED
50173.0,STARLINK-3289,PAYLOAD,2023-08-09 04:56:24,15.0883557,0.0001082,53.2166,154.6496,80.0432,280.0682,0.00022655,3.319e-05,0.0,0 STARLINK-3289,1 50173U 21125T   23221.20583835  .00003319  00000-0  22655-3 0  9990,2 50173  53.2166 154.6496 0001082  80.0432 280.0682 15.08835570 91226,6917.894,95.438,540.507,539.01,0.0
50173.0,STARLINK-3289,PAYLOAD,2023-08-10 19:05:39,15.08838228,0.0001241,53.2166,147.5151,77.848,282.2652,6.6366e-06,-1.82e-06,0.0,0 STARLINK-3289,1 50173U 21125T   23222.79559818 -.00000182  00000-0  66366-5 0  9994,2 50173  53.2166 147.5151 0001241  77.8480 282.2652 15.08838228 91469,6917.886,95.438,540.609,538.892,0.0
50173.0,STARLINK-3289,PAYLOAD,2023-08-11 01:27:10,15.08855479,0.0001067,53.216,146.3248,82.3609,277.7504,0.00014307,1.991e-05,0.0,0 STARLINK-3289,1 50173U 21125T   23223.06054146  .00001991  00000-0  14307-3 0  9993,2 50173  53.2160 146.3248 0001067  82.3609 277.7504 15.08855479 91504,6917.833,95.437,540.436,538.96,0.0
50173.0,STARLINK-3289,PAYLOAD,2023-08-12 01:17:59,15.08830322,0.0001128,53.217,141.8646,81.8811,278.2309,5.1577e-06,-2.06e-06,0.0,0 STARLINK-3289,1 50173U 21125T   23224.05416114 -.00000206  00000-0  51577-5 0  9991,2 50173  53.2170 141.8646 0001128  81.8811 278.2309 15.08830322 91659,6917.91,95.438,540.555,538.995,0.0
50173.0,STARLINK-3289,PAYLOAD,2023-08-13 02:44:09,15.08824105,0.0001257,53.2168,137.1047,90.211,269.9027,0.00046998,7.197e-05,0.0,0 STARLINK-3289,1 50173U 21125T   23225.11400017  .00007197  00000-0  46998-3 0  9998,2 50173  53.2168 137.1047 0001257  90.2110 269.9027 15.08824105 91812,6917.929,95.439,540.664,538.924,0.0
50173.0,STARLINK-3289,PAYLOAD,2023-08-15 00:50:20,15.08841838,0.0001275,53.2176,128.4837,89.9976,270.1162,3.055e-05,1.98e-06,0.0,0 STARLINK-3289,1 50173U 21125T   23227.03496274  .00000198  00000-0  30550-4 0  9993,2 50173  53.2176 128.4837 0001275  89.9976 270.1162 15.08841838 92105,6917.875,95.437,540.622,538.858,0.0
50173.0,STARLINK-3289,PAYLOAD,2023-08-16 02:16:30,15.08846003,0.0001243,53.217,123.7252,91.584,268.5295,0.00017101,2.435e-05,0.0,0 STARLINK-3289,1 50173U 21125T   23228.09479814  .00002435  00000-0  17101-3 0  9993,2 50173  53.2170 123.7252 0001243  91.5840 268.5295 15.08846003 92266,6917.862,95.437,540.587,538.867,0.0
50173.0,STARLINK-3289,PAYLOAD,2023-08-17 02:07:17,15.08847149,0.0001419,53.2165,119.2619,82.9849,277.1305,2.5281e-05,1.14e-06,0.0,0 STARLINK-3289,1 50173U 21125T   23229.08840152  .00000114  00000-0  25281-4 0  9991,2 50173  53.2165 119.2619 0001419  82.9849 277.1305 15.08847149 92412,6917.859,95.437,540.705,538.742,0.0
50173.0,STARLINK-3289,PAYLOAD,2023-08-18 01:58:05,15.08833503,0.0001571,53.2178,114.8003,107.0018,253.1146,0.00026308,3.901e-05,0.0,0 STARLINK-3289,1 50173U 21125T   23230.08200447  .00003901  00000-0  26308-3 0  9997,2 50173  53.2178 114.8003 0001571 107.0018 253.1146 15.08833503 92562,6917.9,95.438,540.852,538.678,0.0
50173.0,STARLINK-3289,PAYLOAD,2023-08-20 01:39:39,15.0884052,0.0001374,53.2182,105.8796,97.2137,262.9011,-1.2446e-05,-4.86e-06,0.0,0 STARLINK-3289,1 50173U 21125T   23232.06920686 -.00000486  00000-0 -12446-4 0  9997,2 50173  53.2182 105.8796 0001374  97.2137 262.9011 15.08840520 92868,6917.879,95.438,540.694,538.793,0.0
50173.0,STARLINK-3289,PAYLOAD,2023-08-21 01:30:25,15.08853186,0.0001351,53.218,101.4208,91.5835,268.5312,6.4356e-05,7.37e-06,0.0,0 STARLINK-3289,1 50173U 21125T   23233.06279875  .00000737  00000-0  64356-4 0  9999,2 50173  53.2180 101.4208 0001351  91.5835 268.5312 15.08853186 93019,6917.84,95.437,540.64,538.77,0.0
50173.0,STARLINK-3289,PAYLOAD,2023-08-21 07:51:58,15.0884133,0.0001347,53.2184,100.2301,86.4365,273.6781,0.00012397,1.686e-05,0.0,0 STARLINK-3289,1 50173U 21125T   23233.32776522  .00001686  00000-0  12397-3 0  9990,2 50173  53.2184 100.2301 0001347  86.4365 273.6781 15.08841330 93059,6917.876,95.437,540.673,538.809,0.0
50173.0,STARLINK-3289,PAYLOAD,2023-08-21 20:35:04,15.08832564,0.0001156,53.2176,97.8563,80.5322,279.5801,7.262e-05,8.68e-06,0.0,0 STARLINK-3289,1 50173U 21125T   23233.85769437  .00000868  00000-0  72620-4 0  9992,2 50173  53.2176  97.8563 0001156  80.5322 279.5801 15.08832564 93133,6917.903,95.438,540.568,538.968,0.0
50173.0,STARLINK-3289,PAYLOAD,2023-08-22 23:36:37,15.08839297,0.0001367,53.2166,92.8011,90.0682,270.0467,1.4526e-05,-5.7e-07,0.0,0 STARLINK-3289,1 50173U 21125T   23234.98377123 -.00000057  00000-0  14526-4 0  9996,2 50173  53.2166  92.8011 0001367  90.0682 270.0467 15.08839297 93307,6917.883,95.438,540.693,538.802,0.0
50173.0,STARLINK-3289,PAYLOAD,2023-08-23 23:27:24,15.08845494,0.0001347,53.2161,88.3388,82.2884,277.8261,0.00022853,3.352e-05,0.0,0 STARLINK-3289,1 50173U 21125T   23235.97737063  .00003352  00000-0  22853-3 0  9990,2 50173  53.2161  88.3388 0001347  82.2884 277.8261 15.08845494 93453,6917.864,95.437,540.66,538.797,0.0
50173.0,STARLINK-3289,PAYLOAD,2023-08-24 23:18:12,15.08841532,0.0001256,53.2176,83.874,95.4961,264.6174,7.4408e-05,8.97e-06,0.0,0 STARLINK-3289,1 50173U 21125T   23236.97097294  .00000897  00000-0  74408-4 0  9991,2 50173  53.2176  83.8740 0001256  95.4961 264.6174 15.08841532 93605,6917.876,95.437,540.61,538.872,0.0
50173.0,STARLINK-3289,PAYLOAD,2023-08-25 19:58:12,15.088467,0.0001294,53.2159,80.0104,91.3393,268.7747,0.00014351,1.997e-05,0.0,0 STARLINK-3289,1 50173U 21125T   23237.83209111  .00001997  00000-0  14351-3 0  9992,2 50173  53.2159  80.0104 0001294  91.3393 268.7747 15.08846700 96825,6917.86,95.437,540.62,538.83,0.0
50173.0,STARLINK-3289,PAYLOAD,2023-08-26 13:27:27,15.08840097,0.0001285,53.2148,76.7424,77.9268,282.1868,0.00018529,2.662e-05,0.0,0 STARLINK-3289,1 50173U 21125T   23238.56073486  .00002662  00000-0  18529-3 0  9998,2 50173  53.2148  76.7424 0001285  77.9268 282.1868 15.08840097 96930,6917.88,95.438,540.634,538.856,0.0
50173.0,STARLINK-3289,PAYLOAD,2023-08-26 18:13:36,15.08842579,0.0001297,53.2157,75.8462,109.7285,250.3847,0.00014362,1.999e-05,0.0,0 STARLINK-3289,1 50173U 21125T   23238.75945289  .00001999  00000-0  14362-3 0  9991,2 50173  53.2157  75.8462 0001297 109.7285 250.3847 15.08842579 93879,6917.873,95.437,540.635,538.84,0.0
50173.0,STARLINK-3289,PAYLOAD,2023-08-26 19:48:59,15.08843908,0.0001162,53.2163,75.5501,105.9606,254.1514,4.2696e-05,3.92e-06,0.0,0 STARLINK-3289,1 50173U 21125T   23238.82569150  .00000392  00000-0  42696-4 0  9996,2 50173  53.2163  75.5501 0001162 105.9606 254.1514 15.08843908 96977,6917.868,95.437,540.537,538.93,0.0
50173.0,STARLINK-3289,PAYLOAD,2023-08-27 18:04:24,15.08799313,0.0001328,53.2179,71.3871,119.927,240.1854,0.00067028,0.00010384,0.0,0 STARLINK-3289,1 50173U 21125T   23239.75306371  .00010384  00000-0  67028-3 0  9990,2 50173  53.2179  71.3871 0001328 119.9270 240.1854 15.08799313 94020,6918.005,95.44,540.788,538.951,0.0
50173.0,STARLINK-3289,PAYLOAD,2023-08-27 19:39:49,15.08746678,0.0001609,53.2175,71.0899,122.8685,237.2462,0.0014506,0.00022815,0.0,0 STARLINK-3289,1 50173U 21125T   23239.81931829  .00022815  00000-0  14506-2 0  9993,2 50173  53.2175  71.0899 0001609 122.8685 237.2462 15.08746678 97120,6918.166,95.443,541.144,538.918,0.0
50173.0,STARLINK-3289,PAYLOAD,2023-08-28 16:19:48,15.08837224,0.0001426,53.2181,67.2244,103.0681,257.0471,5.5347e-05,5.93e-06,0.0,0 STARLINK-3289,1 50173U 21125T   23240.68041797  .00000593  00000-0  55347-4 0  9995,2 50173  53.2181  67.2244 0001426 103.0681 257.0471 15.08837224 94161,6917.889,95.438,540.74,538.767,0.0
50173.0,STARLINK-3289,PAYLOAD,2023-08-29 19:21:21,15.08841477,0.0001362,53.2183,62.1694,99.2866,260.8281,9.6315e-05,1.245e-05,0.0,0 STARLINK-3289,1 50173U 21125T   23241.80649643  .00001245  00000-0  96315-4 0  9999,2 50173  53.2183  62.1694 0001362  99.2866 260.8281 15.08841477 97424,6917.876,95.437,540.683,538.799,0.0
50173.0,STARLINK-3289,PAYLOAD,2023-08-30 16:01:22,15.08832126,9.64e-05,53.2183,58.3054,61.821,298.288,0.00011777,1.587e-05,0.0,0 STARLINK-3289,1 50173U 21125T   23242.66762317  .00001587  00000-0  11777-3 0  9995,2 50173  53.2183  58.3054 0000964  61.8210 298.2880 15.08832126 94468,6917.904,95.438,540.436,539.103,0.0
50173.0,STARLINK-3289,PAYLOAD,2023-08-31 11:06:00,15.08840954,0.0001494,53.2185,54.7367,92.8439,267.2724,1.9698e-05,2.6e-07,0.0,0 STARLINK-3289,1 50173U 21125T   23243.46250194  .00000026  00000-0  19698-4 0  9997,2 50173  53.2185  54.7367 0001494  92.8439 267.2724 15.08840954 97670,6917.877,95.437,540.776,538.709,0.0
50173.0,STARLINK-3289,PAYLOAD,2023-09-01 10:56:44,15.0889891,9.76e-05,53.2188,50.2759,301.4224,58.6673,-0.00064965,-0.00010629,0.0,0 STARLINK-3289,1 50173U 21125T   23244.45607444 -.00010629  00000-0 -64965-3 0  9999,2 50173  53.2188  50.2759 0000976 301.4224  58.6673 15.08898910 94738,6917.7,95.434,540.24,538.89,0.0
50173.0,STARLINK-3289,PAYLOAD,2023-09-01 20:29:05,15.08845172,0.0001395,53.2155,48.4892,87.7656,272.3496,0.00013443,1.852e-05,0.0,0 STARLINK-3289,1 50173U 21125T   23244.85353760  .00001852  00000-0  13443-3 0  9993,2 50173  53.2155  48.4892 0001395  87.7656 272.3496 15.08845172 94794,6917.865,95.437,540.695,538.765,0.0
50173.0,STARLINK-3289,PAYLOAD,2023-09-02 04:26:01,15.08842122,0.0001395,53.215,47.0022,88.0514,272.0638,0.00013815,1.912e-05,0.0,0 STARLINK-3289,1 50173U 21125T   23245.18473954  .00001912  00000-0  13815-3 0  9998,2 50173  53.2150  47.0022 0001395  88.0514 272.0638 15.08842122 97932,6917.874,95.437,540.704,538.774,0.0
50173.0,STARLINK-3289,PAYLOAD,2023-09-02 17:09:06,15.08843917,0.0001516,53.2152,44.6226,93.4013,266.7153,0.0001277,1.745e-05,0.0,0 STARLINK-3289,1 50173U 21125T   23245.71465877  .00001745  00000-0  12770-3 0  9995,2 50173  53.2152  44.6226 0001516  93.4013 266.7153 15.08843917 94923,6917.868,95.437,540.782,538.685,0.0
